FENGYUN 1C DEB          
1 37438U 99025EHG 17343.82699516  .00000208  00000-0  14344-3 0  9993
2 37438  99.0434   6.9593 0030962 205.0395 154.9275 14.09859420496028
